[{"OBJECT_NAME":"ION SCV-010","OBJECT_ID":"2023-054Q","EPOCH":"2026-03-09T16:02:35.904768","MEAN_MOTION":15.25210322,"ECCENTRICITY":0.00127052,"INCLINATION":97.3904,"RA_OF_ASC_NODE":319.4312,"ARG_OF_PERICENTER":188.785,"MEAN_ANOMALY":171.3168,"EPHEMERIS_TYPE":0,"CLASSIFICATION_TYPE":"U","NORAD_CAT_ID":56192,"ELEMENT_SET_NO":999,"REV_AT_EPOCH":16102,"BSTAR":0.00025045068,"MEAN_MOTION_DOT":6.231e-5,"MEAN_MOTION_DDOT":0},{"OBJECT_NAME":"STARLINK-32479","OBJECT_ID":"2024-224K","EPOCH":"2026-03-09T06:05:46.346496","MEAN_MOTION":15.27590966,"ECCENTRICITY":3.722e-5,"INCLINATION":42.9968,"RA_OF_ASC_NODE":160.5456,"ARG_OF_PERICENTER":280.0789,"MEAN_ANOMALY":80.002,"EPHEMERIS_TYPE":0,"CLASSIFICATION_TYPE":"U","NORAD_CAT_ID":62148,"ELEMENT_SET_NO":999,"REV_AT_EPOCH":7235,"BSTAR":0.0014321868,"MEAN_MOTION_DOT":0.00039372,"MEAN_MOTION_DDOT":0}]
